start=new Date('2021-09-14T00:00:00.000Z').valueOf();
sats=[{"MEAN_ELEMENT_THEORY":"SGP4","DECAY_DATE":null,"EPOCH":"2021-09-13T18:29:11.756544","RCS_SIZE":"LARGE","REV_AT_EPOCH":"6959","TIME_SYSTEM":"UTC","OBJECT_NAME":"STARLINK-1509","GP_ID":"184660843","OBJECT_TYPE":"PAYLOAD","PERIAPSIS":"546.528","ECCENTRICITY":"0.00009910","TLE_LINE2":"2 45766  53.0573   9.5294 0000991 107.1615 252.9482 15.06399860 69590","MEAN_MOTION":"15.06399860","APOAPSIS":"547.900","MEAN_ANOMALY":"252.9482","EPHEMERIS_TYPE":"0","REF_FRAME":"TEME","SEMIMAJOR_AXIS":"6925.349","MEAN_MOTION_DOT":"-0.00000092","BSTAR":"0.00001270500000","LAUNCH_DATE":"2020-06-13","CLASSIFICATION_TYPE":"U","PERIOD":"95.592","SITE":"AFETR","TLE_LINE1":"1 45766U 20038AN  21256.77027496 -.00000092  00000-0  12705-4 0  9990","INCLINATION":"53.0573","CENTER_NAME":"EARTH","NORAD_CAT_ID":"45766","OBJECT_ID":"2020-038AN","FILE":"3115005","ARG_OF_PERICENTER":"107.1615","COUNTRY_CODE":"US","RA_OF_ASC_NODE":"9.5294","ELEMENT_SET_NO":"999","MEAN_MOTION_DDOT":"0.0000000000000"},{"TLE_LINE2":"2 45767  53.0560   9.5634 0001243 108.5434 251.5690 15.06391519 69599","ECCENTRICITY":"0.00012430","APOAPSIS":"548.100","MEAN_MOTION":"15.06391519","DECAY_DATE":null,"EPOCH":"2021-09-13T18:18:35.773056","RCS_SIZE":"LARGE","MEAN_ELEMENT_THEORY":"SGP4","OBJECT_TYPE":"PAYLOAD","PERIAPSIS":"546.379","GP_ID":"184661093","TIME_SYSTEM":"UTC","OBJECT_NAME":"STARLINK-1511","REV_AT_EPOCH":"6959","OBJECT_ID":"2020-038AP","NORAD_CAT_ID":"45767","CENTER_NAME":"EARTH","MEAN_MOTION_DDOT":"0.0000000000000","RA_OF_ASC_NODE":"9.5634","COUNTRY_CODE":"US","ELEMENT_SET_NO":"999","ARG_OF_PERICENTER":"108.5434","FILE":"3115005","MEAN_MOTION_DOT":"0.00000178","EPHEMERIS_TYPE":"0","MEAN_ANOMALY":"251.5690","SEMIMAJOR_AXIS":"6925.375","REF_FRAME":"TEME","INCLINATION":"53.0560","SITE":"AFETR","TLE_LINE1":"1 45767U 20038AP  21256.76291404  .00000178  00000-0  30855-4 0  9992","PERIOD":"95.593","CLASSIFICATION_TYPE":"U","BSTAR":"0.00003085500000","LAUNCH_DATE":"2020-06-13"},{"MEAN_MOTION":"15.06396448","APOAPSIS":"548.156","ECCENTRICITY":"0.00013450","TLE_LINE2":"2 45768  53.0567  10.5406 0001345 107.7209 252.3927 15.06396448 69576","REV_AT_EPOCH":"6957","TIME_SYSTEM":"UTC","OBJECT_NAME":"STARLINK-1521","GP_ID":"184661845","OBJECT_TYPE":"PAYLOAD","PERIAPSIS":"546.293","MEAN_ELEMENT_THEORY":"SGP4","DECAY_DATE":null,"RCS_SIZE":"LARGE","EPOCH":"2021-09-13T13:05:25.325664","ARG_OF_PERICENTER":"107.7209","FILE":"3115005","COUNTRY_CODE":"US","RA_OF_ASC_NODE":"10.5406","ELEMENT_SET_NO":"999","MEAN_MOTION_DDOT":"0.0000000000000","CENTER_NAME":"EARTH","NORAD_CAT_ID":"45768","OBJECT_ID":"2020-038AQ","LAUNCH_DATE":"2020-06-13","BSTAR":"0.00005989900000","PERIOD":"95.592","CLASSIFICATION_TYPE":"U","SITE":"AFETR","TLE_LINE1":"1 45768U 20038AQ  21256.54543201  .00000611  00000-0  59899-4 0  9995","INCLINATION":"53.0567","MEAN_ANOMALY":"252.3927","EPHEMERIS_TYPE":"0","SEMIMAJOR_AXIS":"6925.359","REF_FRAME":"TEME","MEAN_MOTION_DOT":"0.00000611"},{"MEAN_MOTION_DOT":"0.00001303","REF_FRAME":"TEME","SEMIMAJOR_AXIS":"6925.349","MEAN_ANOMALY":"260.1018","EPHEMERIS_TYPE":"0","INCLINATION":"53.0559","TLE_LINE1":"1 45769U 20038AR  21256.76842984  .00001303  00000-0  10632-3 0  9990","SITE":"AFETR","PERIOD":"95.592","CLASSIFICATION_TYPE":"U","LAUNCH_DATE":"2020-06-13","BSTAR":"0.00010632000000","OBJECT_ID":"2020-038AR","NORAD_CAT_ID":"45769","CENTER_NAME":"EARTH","MEAN_MOTION_DDOT":"0.0000000000000","ELEMENT_SET_NO":"999","COUNTRY_CODE":"US","RA_OF_ASC_NODE":"29.5388","ARG_OF_PERICENTER":"100.0120","FILE":"3115005","RCS_SIZE":"LARGE","EPOCH":"2021-09-13T18:26:32.338176","DECAY_DATE":null,"MEAN_ELEMENT_THEORY":"SGP4","PERIAPSIS":"546.300","OBJECT_TYPE":"PAYLOAD","GP_ID":"184662579","OBJECT_NAME":"STARLINK-1459","TIME_SYSTEM":"UTC","REV_AT_EPOCH":"6932","TLE_LINE2":"2 45769  53.0559  29.5388 0001319 100.0120 260.1018 15.06399884 69324","ECCENTRICITY":"0.00013190","APOAPSIS":"548.127","MEAN_MOTION":"15.06399884"},{"REF_FRAME":"TEME","SEMIMAJOR_AXIS":"6925.397","EPHEMERIS_TYPE":"0","MEAN_ANOMALY":"237.9840","MEAN_MOTION_DOT":"-0.00000242","PERIOD":"95.593","CLASSIFICATION_TYPE":"U","LAUNCH_DATE":"2020-06-13","BSTAR":"0.00000260430000","INCLINATION":"53.0566","TLE_LINE1":"1 45770U 20038AS  21256.70483826 -.00000242  00000-0  26043-5 0  9999","SITE":"AFETR","NORAD_CAT_ID":"45770","CENTER_NAME":"EARTH","OBJECT_ID":"2020-038AS","ARG_OF_PERICENTER":"122.1252","FILE":"3115005","MEAN_MOTION_DDOT":"0.0000000000000","ELEMENT_SET_NO":"999","RA_OF_ASC_NODE":"349.8274","COUNTRY_CODE":"US","MEAN_ELEMENT_THEORY":"SGP4","RCS_SIZE":"LARGE","EPOCH":"2021-09-13T16:54:58.025664","DECAY_DATE":null,"OBJECT_NAME":"STARLINK-1462","TIME_SYSTEM":"UTC","REV_AT_EPOCH":"6986","PERIAPSIS":"546.526","OBJECT_TYPE":"PAYLOAD","GP_ID":"184661344","TLE_LINE2":"2 45770  53.0566 349.8274 0001064 122.1252 237.9840 15.06384040 69866","ECCENTRICITY":"0.00010640","MEAN_MOTION":"15.06384040","APOAPSIS":"547.999"},{"RCS_SIZE":"LARGE","EPOCH":"2021-09-13T15:10:09.634080","DECAY_DATE":null,"MEAN_ELEMENT_THEORY":"SGP4","GP_ID":"184661594","PERIAPSIS":"546.480","OBJECT_TYPE":"PAYLOAD","REV_AT_EPOCH":"6985","OBJECT_NAME":"STARLINK-1463","TIME_SYSTEM":"UTC","ECCENTRICITY":"0.00010860","TLE_LINE2":"2 45771  53.0560 350.1523 0001086 108.6641 251.4466 15.06393913 69851","APOAPSIS":"547.984","MEAN_MOTION":"15.06393913","MEAN_MOTION_DOT":"-0.00000147","REF_FRAME":"TEME","SEMIMAJOR_AXIS":"6925.367","EPHEMERIS_TYPE":"0","MEAN_ANOMALY":"251.4466","TLE_LINE1":"1 45771U 20038AT  21256.63205595 -.00000147  00000-0  90298-5 0  9994","SITE":"AFETR","INCLINATION":"53.0560","BSTAR":"0.00000902980000","LAUNCH_DATE":"2020-06-13","PERIOD":"95.593","CLASSIFICATION_TYPE":"U","OBJECT_ID":"2020-038AT","CENTER_NAME":"EARTH","NORAD_CAT_ID":"45771","ELEMENT_SET_NO":"999","RA_OF_ASC_NODE":"350.1523","COUNTRY_CODE":"US","MEAN_MOTION_DDOT":"0.0000000000000","FILE":"3115005","ARG_OF_PERICENTER":"108.6641"},{"MEAN_MOTION":"15.06390951","APOAPSIS":"548.158","ECCENTRICITY":"0.00013230","TLE_LINE2":"2 45772  53.0567 350.2037 0001323 119.5648 240.5473 15.06390951 69869","REV_AT_EPOCH":"6986","OBJECT_NAME":"STARLINK-1470","TIME_SYSTEM":"UTC","GP_ID":"184662346","PERIAPSIS":"546.325","OBJECT_TYPE":"PAYLOAD","MEAN_ELEMENT_THEORY":"SGP4","RCS_SIZE":"LARGE","EPOCH":"2021-09-13T14:54:14.508864","DECAY_DATE":null,"ARG_OF_PERICENTER":"119.5648","FILE":"3115005","ELEMENT_SET_NO":"999","COUNTRY_CODE":"US","RA_OF_ASC_NODE":"350.2037","MEAN_MOTION_DDOT":"0.0000000000000","CENTER_NAME":"EARTH","NORAD_CAT_ID":"45772","OBJECT_ID":"2020-038AU","BSTAR":"-0.00000424920000","LAUNCH_DATE":"2020-06-13","CLASSIFICATION_TYPE":"U","PERIOD":"95.593","TLE_LINE1":"1 45772U 20038AU  21256.62100126 -.00000345  00000-0 -42492-5 0  9992","SITE":"AFETR","INCLINATION":"53.0567","SEMIMAJOR_AXIS":"6925.376","REF_FRAME":"TEME","EPHEMERIS_TYPE":"0","MEAN_ANOMALY":"240.5473","MEAN_MOTION_DOT":"-0.00000345"},{"TLE_LINE2":"2 45773  53.0561 350.2307 0001013 104.2182 255.8920 15.06399279 69862","ECCENTRICITY":"0.00010130","APOAPSIS":"547.917","MEAN_MOTION":"15.06399279","DECAY_DATE":null,"EPOCH":"2021-09-13T14:43:36.919200","RCS_SIZE":"LARGE","MEAN_ELEMENT_THEORY":"SGP4","OBJECT_TYPE":"PAYLOAD","PERIAPSIS":"546.514","GP_ID":"184662079","TIME_SYSTEM":"UTC","OBJECT_NAME":"STARLINK-1482","REV_AT_EPOCH":"6986","OBJECT_ID":"2020-038AV","NORAD_CAT_ID":"45773","CENTER_NAME":"EARTH","MEAN_MOTION_DDOT":"0.0000000000000","COUNTRY_CODE":"US","RA_OF_ASC_NODE":"350.2307","ELEMENT_SET_NO":"999","ARG_OF_PERICENTER":"104.2182","FILE":"3115005","MEAN_MOTION_DOT":"-0.00000227","MEAN_ANOMALY":"255.8920","EPHEMERIS_TYPE":"0","REF_FRAME":"TEME","SEMIMAJOR_AXIS":"6925.351","INCLINATION":"53.0561","SITE":"AFETR","TLE_LINE1":"1 45773U 20038AV  21256.61362175 -.00000227  00000-0  36260-5 0  9990","CLASSIFICATION_TYPE":"U","PERIOD":"95.592","BSTAR":"0.00000362600000","LAUNCH_DATE":"2020-06-13"},{"EPHEMERIS_TYPE":"0","MEAN_ANOMALY":"252.0006","SEMIMAJOR_AXIS":"6925.394","REF_FRAME":"TEME","MEAN_MOTION_DOT":"-0.00000310","PERIOD":"95.593","CLASSIFICATION_TYPE":"U","LAUNCH_DATE":"2020-06-13","BSTAR":"-0.00000189780000","INCLINATION":"53.0546","SITE":"AFETR","TLE_LINE1":"1 45774U 20038AW  21256.71684141 -.00000310  00000-0 -18978-5 0  9992","NORAD_CAT_ID":"45774","CENTER_NAME":"EARTH","OBJECT_ID":"2020-038AW","FILE":"3115005","ARG_OF_PERICENTER":"108.1127","MEAN_MOTION_DDOT":"0.0000000000000","COUNTRY_CODE":"US","RA_OF_ASC_NODE":"349.7759","ELEMENT_SET_NO":"999","MEAN_ELEMENT_THEORY":"SGP4","DECAY_DATE":null,"RCS_SIZE":"MEDIUM","EPOCH":"2021-09-13T17:12:15.097824","TIME_SYSTEM":"UTC","OBJECT_NAME":"STARLINK-1485","REV_AT_EPOCH":"6987","OBJECT_TYPE":"PAYLOAD","PERIAPSIS":"546.338","GP_ID":"184660844","TLE_LINE2":"2 45774  53.0546 349.7759 0001330 108.1127 252.0006 15.06385230 69871","ECCENTRICITY":"0.00013300","MEAN_MOTION":"15.06385230","APOAPSIS":"548.180"},{"PERIOD":"95.593","CLASSIFICATION_TYPE":"U","LAUNCH_DATE":"2020-06-13","BSTAR":"0.00001670800000","INCLINATION":"53.0559","SITE":"AFETR","TLE_LINE1":"1 45775U 20038AX  21256.72052602 -.00000032  00000-0  16708-4 0  9993","MEAN_ANOMALY":"254.8231","EPHEMERIS_TYPE":"0","REF_FRAME":"TEME","SEMIMAJOR_AXIS":"6925.392","MEAN_MOTION_DOT":"-0.00000032","FILE":"3115005","ARG_OF_PERICENTER":"105.2870","MEAN_MOTION_DDOT":"0.0000000000000","RA_OF_ASC_NODE":"349.7536","COUNTRY_CODE":"US","ELEMENT_SET_NO":"999","NORAD_CAT_ID":"45775","CENTER_NAME":"EARTH","OBJECT_ID":"2020-038AX","TIME_SYSTEM":"UTC","OBJECT_NAME":"STARLINK-1488","REV_AT_EPOCH":"6988","OBJECT_TYPE":"PAYLOAD","PERIAPSIS":"546.553","GP_ID":"184661094","MEAN_ELEMENT_THEORY":"SGP4","DECAY_DATE":null,"RCS_SIZE":"LARGE","EPOCH":"2021-09-13T17:17:33.448128","MEAN_MOTION":"15.06385985","APOAPSIS":"547.960","TLE_LINE2":"2 45775  53.0559 349.7536 0001016 105.2870 254.8231 15.06385985 69881","ECCENTRICITY":"0.00010160"}];
